IRIDIUM 155             
1 43573U 18061E   21354.62068074  .00000153  00000+0  47499-4 0  9991
2 43573  86.3969  21.8893 0001887  83.0681 277.0730 14.34218457178355
IRIDIUM 154             
1 43574U 18061F   21354.88072497  .00000162  00000+0  50837-4 0  9994
2 43574  86.3972  21.8357 0002449  93.2270 266.9206 14.34216660178446
IRIDIUM 163             
1 43575U 18061G   21354.86168947  .00000140  00000+0  42900-4 0  9997
2 43575  86.3970  21.8091 0002149 105.3205 254.8229 14.34221145178412
IRIDIUM 156             
1 43576U 18061H   21354.62702713  .00000145  00000+0  44572-4 0  9999
2 43576  86.3970  21.9125 0001858  96.1200 264.0207 14.34219636178376
IRIDIUM 164             
1 43577U 18061J   21354.60798938  .00000150  00000+0  46362-4 0  9997
2 43577  86.3971  21.9358 0002371  96.5909 263.5557 14.34220058178414
IRIDIUM 159             
1 43578U 18061K   21354.78557958  .00000145  00000+0  44660-4 0  9995
2 43578  86.3970  21.8329 0002367  94.0132 266.1334 14.34221465178401
IRIDIUM 180             
1 43922U 19002A   21354.92462690  .00000132  00000+0  40021-4 0  9991
2 43922  86.3960 318.6421 0002876  98.8089 261.3433 14.34220376154031
IRIDIUM 176             
1 43923U 19002B   21354.91388996  .00000431  00000+0  64517-4 0  9995
2 43923  86.6094 318.6813 0002472  83.7806 276.3693 14.72255984158066
IRIDIUM 168             
1 43924U 19002C   21354.91827652  .00000130  00000+0  39386-4 0  9995
2 43924  86.3963 318.6757 0002429  88.6805 271.4669 14.34219813154010
IRIDIUM 173             
1 43925U 19002D   21354.90559234  .00000136  00000+0  41486-4 0  9993
2 43925  86.3959 318.6367 0002332  90.3284 269.8179 14.34219249153993
IRIDIUM 169             
1 43926U 19002E   21354.75314995  .00000160  00000+0  45803-4 0  9994
2 43926  86.4221 350.3027 0004597   6.6854 353.4405 14.38613881154527
IRIDIUM 172             
1 43927U 19002F   21354.89925032  .00000138  00000+0  42153-4 0  9990
2 43927  86.3959 318.6423 0002416  91.1130 269.0343 14.34220591154000
IRIDIUM 175             
1 43928U 19002G   21354.90767798  .00000429  00000+0  64175-4 0  9997
2 43928  86.6096 318.5090 0002606  97.2016 262.9498 14.72255686158053
IRIDIUM 171             
1 43929U 19002H   21354.81045067  .00000134  00000+0  40650-4 0  9991
2 43929  86.3969 318.8037 0002410  88.1612 271.9860 14.34220073153988
IRIDIUM 170             
1 43930U 19002J   21354.92009301  .00000427  00000+0  63832-4 0  9998
2 43930  86.6094 318.6845 0002593  89.8403 270.3111 14.72255479158072
IRIDIUM 167             
1 43931U 19002K   21354.66457913  .00000133  00000+0  40418-4 0  9995
2 43931  86.3960 318.7483 0002714  95.0509 265.0996 14.34217888153967
